P/2007 R4 (Garradd),e,20.2321,87.2296,283.0001,5.891953,0.0689152,0.66963485,282.5432,11/12.0/2018,2000,g 14.5,4.0
# From MPC 73462
P/2007 S1 (Zhao),e,5.9641,141.4621,245.9742,3.805449,0.1327686,0.34097489,170.5215,11/12.0/2018,2000,g 13.0,4.0
# From MPC 82314
C/2007 S2 (Lemmon),e,16.8455,296.0842,210.6818,12.56298,0.0221343,0.55537861,82.2611,11/12.0/2018,2000,g  6.5,4.0
# From MPC 62270
C/2007 T1 (McNaught),e,117.8902,111.6658,233.9344,2215,0.0000095,0.99955843,0.0000,12/09.2425/2007,2000,g 10.5,4.0
# From MPC 61994
P/2007 T2 (Kowalski),e,9.7335,3.3975,359.6462,3.048772,0.1851470,0.78477780,20.6509,11/12.0/2018,2000,g 18.5,4.0
# From MPC 62879
P/2007 T4 (Gibbs),e,23.8601,37.0589,42.4388,5.248380,0.0819721,0.61800163,339.2050,11/12.0/2018,2000,g 13.0,4.0
# From MPC 65935
C/2007 T5 (Gibbs),e,45.5026,109.8113,34.5907,46.72080,0.0030863,0.91279071,11.8097,11/12.0/2018,2000,g  8.0,4.0
# From MPC 66921
C/2007 U1 (LINEAR),h,08/08.7624/2008,157.7318,50.4615,1.2215,1.000222,3.309240,2000,9.0,4.0
# From MPC 75708
P/2007 VQ11 (Catalina),e,12.3233,163.8235,277.7437,5.418399,0.0781443,0.50272246,307.1471,11/12.0/2018,2000,g 12.0,4.0
# From MPC 81468
C/2007 VO53 (Spacewatch),h,04/22.5651/2010,86.8570,59.6984,75.1503,1.000093,4.859480,2000,7.0,4.0
# From MPC 63599
C/2007 W1 (Boattini),e,9.9044,334.3626,306.4352,1305,0.0000209,0.99936218,0.0000,06/26.7624/2008,2000,g  9.5,4.0
# From MPC 63376
C/2007 W3 (LINEAR),e,78.6167,72.6896,112.6348,4019,0.0000039,0.99955800,0.0000,06/02.2525/2008,2000,g 12.0,4.0
# From MPC 62271
C/2007 Y1 (LINEAR),e,110.0594,133.1582,357.2805,14719,0.0000006,0.99977188,0.0000,03/19.6881/2008,2000,g 10.5,4.0
# From MPC 62271
C/2007 Y2 (McNaught),e,98.3755,303.3679,257.6929,953.3573,0.0000335,0.99559405,0.0000,04/10.8473/2008,2000,g  9.0,4.0
# From MPC 65935
C/2008 A1 (McNaught),e,82.9241,277.6545,348.3416,3797,0.0000042,0.99971914,0.0000,09/28.5726/2008,2000,g  6.5,4.0
# From MPC 62582
C/2008 C1 (Chen-Gao),e,61.5851,307.8348,181.0367,6040,0.0000021,0.99978886,0.0000,04/16.1062/2008,2000,g 10.0,4.0
# From MPC 75708
P/2008 CL94 (Lemmon),e,8.3529,33.3536,81.0676,6.154369,0.0645548,0.12010141,292.1250,11/12.0/2018,2000,g  8.0,4.0
# From MPC112389
C/2008 E1 (Catalina),e,34.8288,188.8405,270.7018,10.81048,0.0277292,0.54871009,104.0113,11/12.0/2018,2000,g  7.0,4.0
# From MPC 68392
C/2008 E3 (Garradd),e,105.2422,105.6540,218.0418,1279,0.0000216,0.99567230,0.0000,07/29.6497/2008,2000,g  6.0,4.0
# From MPC 88324
C/2008 FK75 (Lemmon-Siding Spring),h,10/01.7468/2010,61.2906,218.2773,80.3531,1.000996,4.497176,2000,5.0,4.0
# From MPC 82314
C/2008 G1 (Gibbs),e,73.0574,215.9201,63.6712,292.0922,0.0001974,0.98636898,0.0000,01/14.5308/2009,2000,g  9.5,4.0
# From MPC 63137
C/2008 H1 (LINEAR),e,75.3825,34.4459,96.1456,50.64707,0.0027345,0.94516592,10.6572,11/12.0/2018,2000,g 10.5,4.0
# From MPC 65054
C/2008 J1 (Boattini),e,61.9966,273.6633,67.9667,156.9859,0.0005011,0.98903405,0.0000,07/11.3456/2008,2000,g 10.0,4.0
# From MPC 63376
C/2008 J5 (Garradd),e,93.3579,286.8170,313.0890,68.20999,0.0017496,0.97142865,0.0000,03/31.7577/2008,2000,g 12.0,4.0
# From MPC 82314
C/2008 J6 (Hill),h,04/10.9650/2008,45.1682,298.1231,10.5343,1.000882,1.985818,2000,10.5,4.0
# From MPC 75709
P/2008 L2 (Hill),e,25.8398,218.0057,141.2256,6.026219,0.0666249,0.61215218,250.5290,11/12.0/2018,2000,g 12.5,4.0
# From MPC112389
C/2008 N1 (Holmes),e,115.4543,357.4587,100.9056,857.3187,0.0000393,0.99672866,0.0000,09/20.9106/2009,2000,g  9.0,4.0
# From MPC 64114
P/2008 O3 (Boattini),e,32.1898,47.6371,341.1059,8.230570,0.0417407,0.69367921,159.7108,11/12.0/2018,2000,g 13.0,4.0
# From MPC103843
C/2008 P1 (Garradd),e,64.3244,357.7374,11.6709,2527,0.0000078,0.99846398,0.0000,07/19.9907/2009,2000,g  7.0,4.0
# From MPC 65935
C/2008 Q1 (Maticic),e,118.5496,9.2174,104.4919,553.7376,0.0000756,0.99462180,0.0000,12/24.7016/2008,2000,g 10.0,4.0
# From MPC 80896
C/2008 Q3 (Garradd),e,140.8028,219.5104,340.7730,1648,0.0000147,0.99889759,0.0000,06/19.8161/2009,2000,g 10.0,4.0
# From MPC 75709
P/2008 QP20 (LINEAR-Hill),e,7.5136,322.6766,75.5507,3.534110,0.1483488,0.49699016,190.1440,11/12.0/2018,2000,g 15.5,4.0
# From MPC 64115
C/2008 R3 (LINEAR),e,43.3153,270.8270,83.9478,18.25243,0.0126393,0.89547884,46.0679,11/12.0/2018,2000,g 13.0,4.0
# From MPC 95207
C/2008 S3 (Boattini),h,06/05.8990/2011,162.6912,55.0839,40.0103,1.000836,7.999845,2000,4.0,4.0
# From MPC 66921
C/2008 T2 (Cardinal),h,06/14.4171/2009,56.0705,309.5990,215.9865,1.000196,1.207186,2000,6.0,4.0
# From MPC 66204
P/2008 WZ96 (LINEAR),e,7.2426,56.8119,342.2801,3.464595,0.1528359,0.48143438,205.4074,11/12.0/2018,2000,g 13.5,4.0
# From MPC 65057
C/2008 X3 (LINEAR),e,66.4227,337.7394,140.9703,43.62891,0.0034201,0.95589568,12.6118,11/12.0/2018,2000,g 13.0,4.0
# From MPC 65935
P/2008 Y1 (Boattini),e,8.9186,259.3369,162.8040,4.804495,0.0935906,0.73608434,331.6812,11/12.0/2018,2000,g 15.0,4.0
# From MPC 75710
P/2008 Y3 (McNaught),e,38.7624,262.7856,238.4209,8.040496,0.0432295,0.44665536,155.4327,11/12.0/2018,2000,g  8.5,4.0
# From MPC 88693
P/2008 Y12 (SOHO),e,23.6220,309.7900,144.3811,3.077637,0.1825484,0.97803403,0.0000,10/09.7463/2019,2000,g  9.0,4.0
# From MPC 75710
P/2009 B1 (Boattini),e,22.2213,297.0866,129.0464,6.729979,0.0564525,0.63444655,202.1632,11/12.0/2018,2000,g 13.0,4.0
# From MPC 82315
C/2009 B2 (LINEAR),e,156.9262,18.7381,192.5698,40.86940,0.0037723,0.94254898,13.3440,11/12.0/2018,2000,g 12.5,4.0
# From MPC 72850
C/2009 E1 (Itagaki),e,127.1122,105.6678,48.6366,40.06306,0.0038868,0.98525568,0.0000,04/08.2264/2009,2000,g 11.5,4.0
# From MPC 82315
C/2009 F1 (Larson),e,171.3856,357.9445,219.7378,97.00459,0.0010316,0.98105122,0.0000,06/28.1304/2009,2000,g 15.0,4.0
# From MPC112389
C/2009 F2 (McNaught),e,59.3351,213.9263,336.5620,366.1567,0.0001407,0.98388511,0.0000,11/13.4277/2009,2000,g  6.0,4.0
# From MPC 95208
C/2009 F4 (McNaught),h,01/02.5257/2012,79.4562,53.5587,260.3713,1.000214,5.448153,2000,3.0,4.0
# From MPC 66204
C/2009 F5 (McNaught),e,84.9427,218.8015,297.4231,78.69684,0.0014118,0.97129512,0.0000,11/01.4697/2008,2000,g 10.0,4.0
# From MPC 72850
C/2009 F6 (Yi-SWAN),e,85.6442,279.0631,129.8817,486.9714,0.0000917,0.99736445,0.0000,05/05.7979/2009,2000,g  6.0,4.0
# From MPC 66466
C/2009 G1 (STEREO),e,108.5902,120.5237,175.2852,393.4544,0.0001263,0.99714037,0.0000,04/13.8166/2009,2000,g  9.0,4.0
# From MPC 82315
C/2009 K2 (Catalina),e,66.8562,123.6050,147.5536,892.4002,0.0000370,0.99638470,0.0000,02/08.7694/2010,2000,g 10.0,4.0
# From MPC 66703
C/2009 K4 (Gibbs),e,34.8326,29.8381,127.7954,42.34494,0.0035769,0.96310884,12.2807,11/12.0/2018,2000,g 13.0,4.0
# From MPC 82315
C/2009 K5 (McNaught),e,104.2759,258.1042,66.1988,2399,0.0000084,0.99940654,0.0000,04/29.9522/2010,2000,g  7.5,4.0
# From MPC 69905
C/2009 O2 (Catalina),e,107.7832,310.5789,133.6983,260.3862,0.0002346,0.99729103,0.0000,03/24.1959/2010,2000,g 11.0,4.0
# From MPC 75710
P/2009 O3 (Hill),e,16.2242,183.7884,154.3006,7.777783,0.0454381,0.68601599,157.6801,11/12.0/2018,2000,g 12.5,4.0
# From MPC 67147
C/2009 O4 (Hill),e,95.7966,172.9992,223.6977,10032,0.0000010,0.99974415,0.0000,12/27.6384/2009,2000,g 10.0,4.0
# From MPC103843
C/2009 P1 (Garradd),e,106.3071,326.2039,90.8996,9866,0.0000010,0.99984165,0.0000,12/21.3600/2011,2000,g  4.0,4.0
# From MPC 76024
C/2009 P2 (Boattini),e,163.4109,60.4925,76.1145,9916,0.0000010,0.99934137,0.0000,02/07.5169/2010,2000,g  6.0,4.0
# From MPC 75710
P/2009 Q1 (Hill),e,14.4995,173.9463,157.1270,5.518879,0.0760200,0.49392651,261.9213,11/12.0/2018,2000,g 11.5,4.0
# From MPC112389
P/2009 Q4 (Boattini),e,10.9962,127.4833,320.1000,3.131451,0.1778630,0.58135086,221.8741,11/12.0/2018,2000,g 15.5,4.0
# From MPC 68902
P/2009 Q5 (McNaught),e,40.9052,160.2043,209.0749,7.445257,0.0485160,0.60719393,163.1088,11/12.0/2018,2000,g 10.0,4.0
# From MPC 82315
C/2009 R1 (McNaught),h,07/01.4293/2010,76.8493,322.9178,130.8565,1.000381,0.415111,2000,8.0,4.0
# From MPC 87062
C/2009 S3 (Lemmon),e,60.4524,225.1704,129.6497,6385,0.0000019,0.99898886,0.0000,12/11.5502/2011,2000,g  6.5,4.0
# From MPC 78184
P/2009 SK280 (Spacewatch-Hill),e,16.7999,36.4145,327.9467,4.779481,0.0943263,0.11938944,327.3817,11/12.0/2018,2000,g 11.0,4.0
# From MPC 76567
C/2009 T1 (McNaught),e,90.0444,54.4694,282.5616,1145,0.0000254,0.99457264,0.0000,10/09.8088/2009,2000,g  6.5,4.0
# From MPC112389
P/2009 T2 (La Sagra),e,27.4977,215.7192,216.5604,7.727849,0.0458792,0.76470727,148.4764,11/12.0/2018,2000,g 14.0,4.0
# From MPC 82315
C/2009 T3 (LINEAR),e,148.5838,60.1751,32.3472,2610,0.0000074,0.99913174,0.0000,01/10.9973/2010,2000,g 12.5,4.0
# From MPC 70812
C/2009 U3 (Hill),e,51.0639,49.0720,78.0139,176.3368,0.0004209,0.99189347,0.0000,03/17.1599/2010,2000,g 13.0,4.0
# From MPC 75711
P/2009 U4 (McNaught),e,10.0809,55.3661,259.8345,5.078313,0.0861241,0.67549093,290.0311,11/12.0/2018,2000,g 14.0,4.0
# From MPC 82315
C/2009 U5 (Grauer),h,06/21.6241/2010,25.4301,121.0827,24.2349,1.003653,6.133590,2000,7.0,4.0
# From MPC 82315
C/2009 UG89 (Lemmon),h,12/11.7464/2010,130.1940,321.0628,60.6843,1.005368,3.946459,2000,9.0,4.0
# From MPC 72851
C/2009 W2 (Boattini),e,164.5003,199.5999,121.5254,6067,0.0000021,0.99886281,0.0000,05/07.0809/2010,2000,g  7.0,4.0
# From MPC105235
P/2009 WX51 (Catalina),e,9.5990,31.6747,118.1149,3.077191,0.1825881,0.74036966,225.7373,11/12.0/2018,2000,g 19.0,2.0
# From MPC 82316
C/2009 Y1 (Catalina),e,107.3295,160.1905,127.1045,338.9046,0.0001580,0.99262687,0.0000,01/29.9107/2011,2000,g  9.0,4.0
# From MPC 74247
P/2009 Y2 (Kowalski),e,29.9422,262.0228,172.3313,6.544305,0.0588720,0.63594331,186.2305,11/12.0/2018,2000,g 13.0,4.0
# From MPC 75711
P/2010 A3 (Hill),e,14.9568,64.5990,41.5096,6.073326,0.0658513,0.73214934,207.3000,11/12.0/2018,2000,g 14.0,4.0
# From MPC 77403
C/2010 A4 (Siding Spring),e,96.6994,346.6307,271.5556,286.8397,0.0002029,0.99051727,0.0000,10/11.6505/2010,2000,g 12.5,4.0
# From MPC 72851
P/2010 A5 (LINEAR),e,5.7966,277.6720,307.0534,5.087775,0.0858840,0.66542627,268.1023,11/12.0/2018,2000,g 13.0,4.0
# From MPC111766
